{"type": "FeatureCollection", "features": [ {"type": "Feature", "properties": {"norad_id": 66589, "name": "STARLINK-35447", "group": "last-30-days", "lat": -42.94744392202542, "lon": 120.2320903695882, "alt_km": 410.91799141530646, "timestamp": "2025-12-10T04:57:28.366642+00:00", "meta": {"OBJECT_NAME": "STARLINK-35447", "OBJECT_ID": "2025-270B", "EPOCH": "2025-12-09T20:00:01.999008", "MEAN_MOTION": 15.54434386, "ECCENTRICITY": 0.000164, "INCLINATION": 42.9993, "RA_OF_ASC_NODE": 209.7411, "ARG_OF_PERICENTER": 262.474, "MEAN_ANOMALY": 79.5937, "EPHEMERIS_TYPE": 0, "CLASSIFICATION_TYPE": "U", "NORAD_CAT_ID": 66589, "ELEMENT_SET_NO": 999, "REV_AT_EPOCH": 404, "BSTAR": -0.034702, "MEAN_MOTION_DOT": -0.02083102, "MEAN_MOTION_DDOT": 0}, "tle": {"line1": "1 66589U 25270B   25343.83335647 -.02083102  00000+0 -34702-1 0  9990", "line2": "2 66589  42.9993 209.7411 0001640 262.4740  79.5937 15.54434386  4043"}}, "geometry": {"type": "Point", "coordinates": [120.2320903695882, -42.94744392202542]}}, {"type": "Feature", "properties": {"norad_id": 66590, "name": "STARLINK-35429", "group": "last-30-days", "lat": -42.97869798574239, "lon": 117.62116946663834, "alt_km": 410.93871481500446, "timestamp": "2025-12-10T04:57:28.366652+00:00", "meta": {"OBJECT_NAME": "STARLINK-35429", "OBJECT_ID": "2025-270C", "EPOCH": "2025-12-09T20:00:01.999008", "MEAN_MOTION": 15.54434888, "ECCENTRICITY": 0.0001603, "INCLINATION": 42.9992, "RA_OF_ASC_NODE": 209.7461, "ARG_OF_PERICENTER": 263.5944, "MEAN_ANOMALY": 76.5572, "EPHEMERIS_TYPE": 0, "CLASSIFICATION_TYPE": "U", "NORAD_CAT_ID": 66590, "ELEMENT_SET_NO": 999, "REV_AT_EPOCH": 404, "BSTAR": -0.034729, "MEAN_MOTION_DOT": -0.02084538, "MEAN_MOTION_DDOT": 0}, "tle": {"line1": "1 66590U 25270C   25343.83335647 -.02084538  00000+0 -34729-1 0  9995", "line2": "2 66590  42.9992 209.7461 0001603 263.5944  76.5572 15.54434888  4045"}}, "geometry": {"type": "Point", "coordinates": [117.62116946663834, -42.97869798574239]}}, {"type": "Feature", "properties": {"norad_id": 66591, "name": "STARLINK-36058", "group": "last-30-days", "lat": -42.85654239152502, "lon": 122.8377671466816, "alt_km": 411.0125940259268, "timestamp": "2025-12-10T04:57:28.366662+00:00", "meta": {"OBJECT_NAME": "STARLINK-36058", "OBJECT_ID": "2025-270D", "EPOCH": "2025-12-09T20:00:01.999008", "MEAN_MOTION": 15.54431983, "ECCENTRICITY": 0.0001505, "INCLINATION": 42.9992, "RA_OF_ASC_NODE": 209.7364, "ARG_OF_PERICENTER": 261.6752, "MEAN_ANOMALY": 82.3092, "EPHEMERIS_TYPE": 0, "CLASSIFICATION_TYPE": "U", "NORAD_CAT_ID": 66591, "ELEMENT_SET_NO": 999, "REV_AT_EPOCH": 393, "BSTAR": -0.034613, "MEAN_MOTION_DOT": -0.02078079, "MEAN_MOTION_DDOT": 0}, "tle": {"line1": "1 66591U 25270D   25343.83335647 -.02078079  00000+0 -34613-1 0  9991", "line2": "2 66591  42.9992 209.7364 0001505 261.6752  82.3092 15.54431983  3937"}}, "geometry": {"type": "Point", "coordinates": [122.8377671466816, -42.85654239152502]}}, {"type": "Feature", "properties": {"norad_id": 66592, "name": "STARLINK-36066", "group": "last-30-days", "lat": -42.706608246270605, "lon": 125.43418339257278, "alt_km": 410.9717812770241, "timestamp": "2025-12-10T04:57:28.366674+00:00", "meta": {"OBJECT_NAME": "STARLINK-36066", "OBJECT_ID": "2025-270E", "EPOCH": "2025-12-09T20:00:01.999008", "MEAN_MOTION": 15.54434923, "ECCENTRICITY": 0.0001555, "INCLINATION": 42.9992, "RA_OF_ASC_NODE": 209.7319, "ARG_OF_PERICENTER": 265.3208, "MEAN_ANOMALY": 80.5821, "EPHEMERIS_TYPE": 0, "CLASSIFICATION_TYPE": "U", "NORAD_CAT_ID": 66592, "ELEMENT_SET_NO": 999, "REV_AT_EPOCH": 383, "BSTAR": -0.03473, "MEAN_MOTION_DOT": -0.02084554, "MEAN_MOTION_DDOT": 0}, "tle": {"line1": "1 66592U 25270E   25343.83335647 -.02084554  00000+0 -34730-1 0  9997", "line2": "2 66592  42.9992 209.7319 0001555 265.3208  80.5821 15.54434923  3836"}}, "geometry": {"type": "Point", "coordinates": [125.43418339257278, -42.706608246270605]}}, {"type": "Feature", "properties": {"norad_id": 66593, "name": "STARLINK-36031", "group": "last-30-days", "lat": -42.49801267707259, "lon": 128.0166240895316, "alt_km": 410.9981728481216, "timestamp": "2025-12-10T04:57:28.366684+00:00", "meta": {"OBJECT_NAME": "STARLINK-36031", "OBJECT_ID": "2025-270F", "EPOCH": "2025-12-09T20:00:01.999008", "MEAN_MOTION": 15.54434962, "ECCENTRICITY": 0.0001571, "INCLINATION": 42.9992, "RA_OF_ASC_NODE": 209.7269, "ARG_OF_PERICENTER": 258.8108, "MEAN_ANOMALY": 89.0066, "EPHEMERIS_TYPE": 0, "CLASSIFICATION_TYPE": "U", "NORAD_CAT_ID": 66593, "ELEMENT_SET_NO": 999, "REV_AT_EPOCH": 393, "BSTAR": -0.034702, "MEAN_MOTION_DOT": -0.02083067, "MEAN_MOTION_DDOT": 0}, "tle": {"line1": "1 66593U 25270F   25343.83335647 -.02083067  00000+0 -34702-1 0  9995", "line2": "2 66593  42.9992 209.7269 0001571 258.8108  89.0066 15.54434962  3934"}}, "geometry": {"type": "Point", "coordinates": [128.0166240895316, -42.49801267707259]}}, {"type": "Feature", "properties": {"norad_id": 66594, "name": "STARLINK-36032", "group": "last-30-days", "lat": -42.23187635685, "lon": 130.5786108875592, "alt_km": 410.9538173603105, "timestamp": "2025-12-10T04:57:28.366694+00:00", "meta": {"OBJECT_NAME": "STARLINK-36032", "OBJECT_ID": "2025-270G", "EPOCH": "2025-12-09T20:00:01.999008", "MEAN_MOTION": 15.54438587, "ECCENTRICITY": 0.0001592, "INCLINATION": 42.9993, "RA_OF_ASC_NODE": 209.7222, "ARG_OF_PERICENTER": 264.727, "MEAN_ANOMALY": 85.0102, "EPHEMERIS_TYPE": 0, "CLASSIFICATION_TYPE": "U", "NORAD_CAT_ID": 66594, "ELEMENT_SET_NO": 999, "REV_AT_EPOCH": 367, "BSTAR": -0.034851, "MEAN_MOTION_DOT": -0.02091304, "MEAN_MOTION_DDOT": 0}, "tle": {"line1": "1 66594U 25270G   25343.83335647 -.02091304  00000+0 -34851-1 0  9994", "line2": "2 66594  42.9993 209.7222 0001592 264.7270  85.0102 15.54438587  3679"}}, "geometry": {"type": "Point", "coordinates": [130.5786108875592, -42.23187635685]}}, {"type": "Feature", "properties": {"norad_id": 66595, "name": "STARLINK-35711", "group": "last-30-days", "lat": -41.90905013329126, "lon": 133.1157339930091, "alt_km": 411.0306427558735, "timestamp": "2025-12-10T04:57:28.366705+00:00", "meta": {"OBJECT_NAME": "STARLINK-35711", "OBJECT_ID": "2025-270H", "EPOCH": "2025-12-09T20:00:01.999008", "MEAN_MOTION": 15.5443534, "ECCENTRICITY": 0.0001569, "INCLINATION": 42.9994, "RA_OF_ASC_NODE": 209.7166, "ARG_OF_PERICENTER": 256.3606, "MEAN_ANOMALY": 95.2898, "EPHEMERIS_TYPE": 0, "CLASSIFICATION_TYPE": "U", "NORAD_CAT_ID": 66595, "ELEMENT_SET_NO": 999, "REV_AT_EPOCH": 404, "BSTAR": -0.0347, "MEAN_MOTION_DOT": -0.02083006, "MEAN_MOTION_DDOT": 0}, "tle": {"line1": "1 66595U 25270H   25343.83335647 -.02083006  00000+0 -34700-1 0  9998", "line2": "2 66595  42.9994 209.7166 0001569 256.3606  95.2898 15.54435340  4043"}}, "geometry": {"type": "Point", "coordinates": [133.1157339930091, -41.90905013329126]}}, {"type": "Feature", "properties": {"norad_id": 66596, "name": "STARLINK-35811", "group": "last-30-days", "lat": -41.53095115061522, "lon": 135.62501103706697, "alt_km": 410.9291398303885, "timestamp": "2025-12-10T04:57:28.366718+00:00", "meta": {"OBJECT_NAME": "STARLINK-35811", "OBJECT_ID": "2025-270J", "EPOCH": "2025-12-09T20:00:01.999008", "MEAN_MOTION": 15.54437421, "ECCENTRICITY": 0.0001608, "INCLINATION": 42.9995, "RA_OF_ASC_NODE": 209.7123, "ARG_OF_PERICENTER": 265.4188, "MEAN_ANOMALY": 88.1518, "EPHEMERIS_TYPE": 0, "CLASSIFICATION_TYPE": "U", "NORAD_CAT_ID": 66596, "ELEMENT_SET_NO": 999, "REV_AT_EPOCH": 404, "BSTAR": -0.034801, "MEAN_MOTION_DOT": -0.02088588, "MEAN_MOTION_DDOT": 0}, "tle": {"line1": "1 66596U 25270J   25343.83335647 -.02088588  00000+0 -34801-1 0  9991", "line2": "2 66596  42.9995 209.7123 0001608 265.4188  88.1518 15.54437421  4040"}}, "geometry": {"type": "Point", "coordinates": [135.62501103706697, -41.53095115061522]}}, {"type": "Feature", "properties": {"norad_id": 66597, "name": "STARLINK-35820", "group": "last-30-days", "lat": -41.099121597358, "lon": 138.10188097321813, "alt_km": 410.99498126607614, "timestamp": "2025-12-10T04:57:28.366730+00:00", "meta": {"OBJECT_NAME": "STARLINK-35820", "OBJECT_ID": "2025-270K", "EPOCH": "2025-12-09T20:00:01.999008", "MEAN_MOTION": 15.54432007, "ECCENTRICITY": 0.0001512, "INCLINATION": 42.9998, "RA_OF_ASC_NODE": 209.7076, "ARG_OF_PERICENTER": 263.4138, "MEAN_ANOMALY": 92.0728, "EPHEMERIS_TYPE": 0, "CLASSIFICATION_TYPE": "U", "NORAD_CAT_ID": 66597, "ELEMENT_SET_NO": 999, "REV_AT_EPOCH": 404, "BSTAR": -0.034614, "MEAN_MOTION_DOT": -0.02078138, "MEAN_MOTION_DDOT": 0}, "tle": {"line1": "1 66597U 25270K   25343.83335647 -.02078138  00000+0 -34614-1 0  9994", "line2": "2 66597  42.9998 209.7076 0001512 263.4138  92.0728 15.54432007  4040"}}, "geometry": {"type": "Point", "coordinates": [138.10188097321813, -41.099121597358]}}, {"type": "Feature", "properties": {"norad_id": 66598, "name": "STARLINK-35981", "group": "last-30-days", "lat": -40.613565507713766, "lon": 140.54770491666503, "alt_km": 410.98762826374696, "timestamp": "2025-12-10T04:57:28.366741+00:00", "meta": {"OBJECT_NAME": "STARLINK-35981", "OBJECT_ID": "2025-270L", "EPOCH": "2025-12-09T20:00:01.999008", "MEAN_MOTION": 15.54437165, "ECCENTRICITY": 0.0001578, "INCLINATION": 42.9997, "RA_OF_ASC_NODE": 209.7024, "ARG_OF_PERICENTER": 260.1811, "MEAN_ANOMALY": 97.2204, "EPHEMERIS_TYPE": 0, "CLASSIFICATION_TYPE": "U", "NORAD_CAT_ID": 66598, "ELEMENT_SET_NO": 999, "REV_AT_EPOCH": 377, "BSTAR": -0.034756, "MEAN_MOTION_DOT": -0.02086142, "MEAN_MOTION_DDOT": 0}, "tle": {"line1": "1 66598U 25270L   25343.83335647 -.02086142  00000+0 -34756-1 0  9996", "line2": "2 66598  42.9997 209.7024 0001578 260.1811  97.2204 15.54437165  3772"}}, "geometry": {"type": "Point", "coordinates": [140.54770491666503, -40.613565507713766]}}]}